NORAD_CAT_ID,OBJECT_NAME,OBJECT_TYPE,EPOCH,MEAN_MOTION,ECCENTRICITY,INCLINATION,RA_OF_ASC_NODE,ARG_OF_PERICENTER,MEAN_ANOMALY,BSTAR,MEAN_MOTION_DOT,MEAN_MOTION_DDOT,TLE_LINE0,TLE_LINE1,TLE_LINE2,SEMIMAJOR_AXIS,PERIOD,APOGEE,PERIGEE,DECAYED
51809.0,STARLINK-3607,PAYLOAD,2023-12-13 11:58:33,15.0884706,0.0001915,53.2192,47.6407,55.8689,304.2484,7.0853e-05,8.4e-06,0.0,0 STARLINK-3607,1 51809U 22017AT  23347.49899762  .00000840  00000-0  70853-4 0  9997,2 51809  53.2192  47.6407 0001915  55.8689 304.2484 15.08847060100692,6917.859,95.437,541.049,538.399,0.0
51809.0,STARLINK-3607,PAYLOAD,2023-12-14 10:13:57,15.08841493,0.0001999,53.2194,43.4763,57.4756,302.6429,5.015e-05,5.1e-06,0.0,0 STARLINK-3607,1 51809U 22017AT  23348.42636071  .00000510  00000-0  50150-4 0  9995,2 51809  53.2194  43.4763 0001999  57.4756 302.6429 15.08841493100839,6917.876,95.437,541.124,538.358,0.0
51809.0,STARLINK-3607,PAYLOAD,2023-12-15 10:04:44,15.08843198,0.0001443,53.2174,39.0223,81.0795,279.0361,2.4931e-05,1.09e-06,0.0,0 STARLINK-3607,1 51809U 22017AT  23349.41995736  .00000109  00000-0  24931-4 0  9993,2 51809  53.2174  39.0223 0001443  81.0795 279.0361 15.08843198100981,6917.871,95.437,540.734,538.737,0.0
51809.0,STARLINK-3607,PAYLOAD,2023-12-16 09:55:31,15.08836887,0.0001572,53.2187,34.5594,103.76,256.3567,1.108e-05,-1.12e-06,0.0,0 STARLINK-3607,1 51809U 22017AT  23350.41356200 -.00000112  00000-0  11080-4 0  9998,2 51809  53.2187  34.5594 0001572 103.7600 256.3567 15.08836887101137,6917.89,95.438,540.842,538.667,0.0
51809.0,STARLINK-3607,PAYLOAD,2023-12-17 09:46:18,15.08839655,0.0001627,53.2187,30.1003,109.7973,250.3194,4.9184e-05,4.95e-06,0.0,0 STARLINK-3607,1 51809U 22017AT  23351.40716168  .00000495  00000-0  49184-4 0  9990,2 51809  53.2187  30.1003 0001627 109.7973 250.3194 15.08839655101286,6917.881,95.438,540.872,538.621,0.0
51809.0,STARLINK-3607,PAYLOAD,2023-12-18 08:01:42,15.08844962,0.000158,53.2185,25.936,105.1457,254.971,0.00014336,1.995e-05,0.0,0 STARLINK-3607,1 51809U 22017AT  23352.33451645  .00001995  00000-0  14336-3 0  9995,2 51809  53.2185  25.9360 0001580 105.1457 254.9710 15.08844962101424,6917.865,95.437,540.823,538.637,0.0
51809.0,STARLINK-3607,PAYLOAD,2023-12-19 09:27:53,15.08837986,0.0001368,53.2177,21.175,89.7685,270.3464,-5.125e-06,-3.69e-06,0.0,0 STARLINK-3607,1 51809U 22017AT  23353.39436813 -.00000369  00000-0 -51250-5 0  9996,2 51809  53.2177  21.1750 0001368  89.7685 270.3464 15.08837986101583,6917.887,95.438,540.698,538.805,0.0
51809.0,STARLINK-3607,PAYLOAD,2023-12-20 09:18:41,15.08789715,0.0002046,53.2191,16.716,70.9026,289.2188,0.0006244,9.65e-05,0.0,0 STARLINK-3607,1 51809U 22017AT  23354.38798508  .00009650  00000-0  62440-3 0  9999,2 51809  53.2191  16.7160 0002046  70.9026 289.2188 15.08789715101734,6918.034,95.441,541.315,538.484,0.0
51809.0,STARLINK-3607,PAYLOAD,2023-12-21 09:09:27,15.08810773,0.0002201,53.2199,12.2547,69.6929,290.43,0.00088864,0.00013872,0.0,0 STARLINK-3607,1 51809U 22017AT  23355.38157296  .00013872  00000-0  88864-3 0  9992,2 51809  53.2199  12.2547 0002201  69.6929 290.4300 15.08810773101887,6917.97,95.439,541.357,538.312,0.0
51809.0,STARLINK-3607,PAYLOAD,2023-12-22 07:24:52,15.0883861,0.0001547,53.2174,8.0971,88.7,271.417,4.6822e-05,4.57e-06,0.0,0 STARLINK-3607,1 51809U 22017AT  23356.30893577  .00000457  00000-0  46822-4 0  9998,2 51809  53.2174   8.0971 0001547  88.7000 271.4170 15.08838610102029,6917.885,95.438,540.82,538.679,0.0
51809.0,STARLINK-3607,PAYLOAD,2023-12-23 04:04:52,15.08845923,0.0001434,53.2172,4.2321,86.7442,273.3715,-1.9463e-05,-5.98e-06,0.0,0 STARLINK-3607,1 51809U 22017AT  23357.17005332 -.00000598  00000-0 -19463-4 0  9997,2 51809  53.2172   4.2321 0001434  86.7442 273.3715 15.08845923102152,6917.862,95.437,540.719,538.735,0.0
51809.0,STARLINK-3607,PAYLOAD,2023-12-23 10:26:24,15.08850297,0.000171,53.2186,3.0316,109.1982,250.9195,6.3599e-05,7.25e-06,0.0,0 STARLINK-3607,1 51809U 22017AT  23357.43500915  .00000725  00000-0  63599-4 0  9992,2 51809  53.2186   3.0316 0001710 109.1982 250.9195 15.08850297102191,6917.849,95.437,540.897,538.531,0.0
51809.0,STARLINK-3607,PAYLOAD,2023-12-24 03:55:39,15.08841942,0.0001607,53.218,359.7583,109.0312,251.0854,0.00016079,2.272e-05,0.0,0 STARLINK-3607,1 51809U 22017AT  23358.16365463  .00002272  00000-0  16079-3 0  9999,2 51809  53.2180 359.7583 0001607 109.0312 251.0854 15.08841942102307,6917.874,95.437,540.851,538.628,0.0
51809.0,STARLINK-3607,PAYLOAD,2023-12-24 10:17:12,15.08844819,0.0001577,53.218,358.5705,105.2486,254.868,7.2038e-05,8.59e-06,0.0,0 STARLINK-3607,1 51809U 22017AT  23358.42861297  .00000859  00000-0  72038-4 0  9991,2 51809  53.2180 358.5705 0001577 105.2486 254.8680 15.08844819102344,6917.866,95.437,540.822,538.64,0.0
51809.0,STARLINK-3607,PAYLOAD,2023-12-25 05:21:49,15.08845579,0.0001901,53.2176,355.0025,122.3777,237.7399,4.8123e-05,4.78e-06,0.0,0 STARLINK-3607,1 51809U 22017AT  23359.22349110  .00000478  00000-0  48123-4 0  9990,2 51809  53.2176 355.0025 0001901 122.3777 237.7399 15.08845579102464,6917.863,95.437,541.043,538.413,0.0
51809.0,STARLINK-3607,PAYLOAD,2023-12-26 03:37:14,15.08831342,0.0001761,53.2173,350.8405,113.7737,246.344,0.0001067,1.41e-05,0.0,0 STARLINK-3607,1 51809U 22017AT  23360.15085948  .00001410  00000-0  10670-3 0  9992,2 51809  53.2173 350.8405 0001761 113.7737 246.3440 15.08831342102602,6917.907,95.438,540.99,538.554,0.0
51809.0,STARLINK-3607,PAYLOAD,2023-12-26 09:58:46,15.0883719,0.0001731,53.2181,349.6508,113.9664,246.1509,5.1063e-05,5.25e-06,0.0,0 STARLINK-3607,1 51809U 22017AT  23360.41582027  .00000525  00000-0  51063-4 0  9999,2 51809  53.2181 349.6508 0001731 113.9664 246.1509 15.08837190102644,6917.889,95.438,540.951,538.556,0.0
51809.0,STARLINK-3607,PAYLOAD,2023-12-26 22:41:50,15.08853882,0.0001472,53.2179,347.2769,104.031,256.0846,0.00015472,2.176e-05,0.0,0 STARLINK-3607,1 51809U 22017AT  23360.94572634  .00002176  00000-0  15472-3 0  9997,2 51809  53.2179 347.2769 0001472 104.0310 256.0846 15.08853882102724,6917.838,95.437,540.721,538.685,0.0
51809.0,STARLINK-3607,PAYLOAD,2023-12-27 03:27:59,15.08862068,0.0001424,53.2168,346.3833,102.6846,257.4306,0.00029776,4.457e-05,0.0,0 STARLINK-3607,1 51809U 22017AT  23361.14444176  .00004457  00000-0  29776-3 0  9995,2 51809  53.2168 346.3833 0001424 102.6846 257.4306 15.08862068102754,6917.813,95.436,540.663,538.693,0.0
51809.0,STARLINK-3607,PAYLOAD,2023-12-27 08:14:08,15.08873643,0.0001531,53.2167,345.4909,105.5906,254.5255,0.00061794,9.569e-05,0.0,0 STARLINK-3607,1 51809U 22017AT  23361.34315832  .00009569  00000-0  61794-3 0  9998,2 51809  53.2167 345.4909 0001531 105.5906 254.5255 15.08873643102780,6917.778,95.435,540.702,538.583,0.0
51809.0,STARLINK-3607,PAYLOAD,2023-12-27 22:32:37,15.08845288,0.0001928,53.2165,342.8149,86.3229,273.7983,-1.9353e-05,-5.96e-06,0.0,0 STARLINK-3607,1 51809U 22017AT  23361.93932811 -.00000596  00000-0 -19353-4 0  9993,2 51809  53.2165 342.8149 0001928  86.3229 273.7983 15.08845288102874,6917.864,95.437,541.063,538.395,0.0
51809.0,STARLINK-3607,PAYLOAD,2023-12-28 03:18:47,15.08836407,0.0001273,53.2168,341.9205,83.8214,276.2924,-0.00020229,-3.506e-05,0.0,0 STARLINK-3607,1 51809U 22017AT  23362.13804928 -.00003506  00000-0 -20229-3 0  9990,2 51809  53.2168 341.9205 0001273  83.8214 276.2924 15.08836407102909,6917.891,95.438,540.637,538.876,0.0
51809.0,STARLINK-3607,PAYLOAD,2023-12-28 08:04:57,15.08830544,0.0001196,53.2171,341.0283,84.7801,275.3328,3.7985e-05,3.17e-06,0.0,0 STARLINK-3607,1 51809U 22017AT  23362.33677154  .00000317  00000-0  37985-4 0  9994,2 51809  53.2171 341.0283 0001196  84.7801 275.3328 15.08830544102933,6917.909,95.438,540.602,538.947,0.0
51809.0,STARLINK-3607,PAYLOAD,2023-12-29 07:55:44,15.08841723,0.0001446,53.2167,336.5673,77.0841,283.0313,0.00068467,0.00010626,0.0,0 STARLINK-3607,1 51809U 22017AT  23363.33038024  .00010626  00000-0  68467-3 0  9994,2 51809  53.2167 336.5673 0001446  77.0841 283.0313 15.08841723103085,6917.875,95.437,540.74,538.74,0.0
51809.0,STARLINK-3607,PAYLOAD,2023-12-30 03:00:22,15.08844328,0.0001528,53.2172,332.9948,102.5356,257.5807,0.00042283,6.449e-05,0.0,0 STARLINK-3607,1 51809U 22017AT  23364.12525993  .00006449  00000-0  42283-3 0  9994,2 51809  53.2172 332.9948 0001528 102.5356 257.5807 15.08844328103204,6917.867,95.437,540.789,538.675,0.0
51809.0,STARLINK-3607,PAYLOAD,2023-12-30 07:46:31,15.08848272,0.0001519,53.2169,332.1063,96.8089,263.3076,0.00042576,6.496e-05,0.0,0 STARLINK-3607,1 51809U 22017AT  23364.32397898  .00006496  00000-0  42576-3 0  9994,2 51809  53.2169 332.1063 0001519  96.8089 263.3076 15.08848272103236,6917.855,95.437,540.771,538.669,0.0
51809.0,STARLINK-3607,PAYLOAD,2023-12-31 02:51:09,15.08841827,0.0001437,53.2173,328.5316,101.8241,258.2912,0.00016193,2.29e-05,0.0,0 STARLINK-3607,1 51809U 22017AT  23365.11886140  .00002290  00000-0  16193-3 0  9999,2 51809  53.2173 328.5316 0001437 101.8241 258.2912 15.08841827103351,6917.875,95.437,540.734,538.746,0.0
51809.0,STARLINK-3607,PAYLOAD,2023-12-31 07:37:19,15.08840981,0.0001396,53.2176,327.6464,100.6457,259.4692,0.00012493,1.701e-05,0.0,0 STARLINK-3607,1 51809U 22017AT  23365.31758248  .00001701  00000-0  12493-3 0  9993,2 51809  53.2176 327.6464 0001396 100.6457 259.4692 15.08840981103389,6917.877,95.437,540.708,538.777,0.0
51809.0,STARLINK-3607,PAYLOAD,2024-01-01 02:41:56,15.08840479,0.000139,53.2173,324.079,96.8112,263.3038,0.00011068,1.474e-05,0.0,0 STARLINK-3607,1 51809U 22017AT  24001.11246467  .00001474  00000-0  11068-3 0  9998,2 51809  53.2173 324.0790 0001390  96.8112 263.3038 15.08840479103501,6917.879,95.438,540.706,538.782,0.0
51809.0,STARLINK-3607,PAYLOAD,2024-01-01 21:46:34,15.08845828,0.0001341,53.2172,320.512,97.8415,262.2729,0.00023276,3.419e-05,0.0,0 STARLINK-3607,1 51809U 22017AT  24001.90734349  .00003419  00000-0  23276-3 0  9991,2 51809  53.2172 320.5120 0001341  97.8415 262.2729 15.08845828103622,6917.863,95.437,540.655,538.8,0.0
